1 90000           19337.16666667  .00000049  00000-0  13207-3 0 00008
2 90000 087.8414 146.6458 0009836 271.3464 154.9531 13.15256400000016
1 90001           19337.16666667  .00000251  00000-0  66972-3 0 00001
2 90001 087.8414 146.6458 0009836 271.3330 163.9667 13.15256200000017
1 90002           19337.16666667  .00000417  00000-0  11138-2 0 00009
2 90002 087.8414 146.6458 0009835 271.3162 172.9835 13.15256045000014
1 90003           19337.16666667  .00000565  00000-0  15083-2 0 00007
2 90003 087.8414 146.6458 0009834 271.2941 182.0057 13.15255910000016
1 90004           19337.16666667  .00000685  00000-0  18294-2 0 00008
2 90004 087.8414 146.6458 0009834 271.2663 191.0336 13.15255800000016
1 90005           19337.16666667  .00000741  00000-0  19781-2 0 00004
2 90005 087.8415 146.6458 0009835 271.2344 200.0655 13.15255761000016
1 90006           19337.16666667  .00000746  00000-0  19919-2 0 00003
2 90006 087.8415 146.6458 0009838 271.2011 209.0988 13.15255770000019
1 90007           19337.16666667  .00000705  00000-0  18822-2 0 00001
2 90007 087.8415 146.6458 0009842 271.1701 218.1297 13.15255822000012
1 90008           19337.16666667  .00000626  00000-0  16716-2 0 00004
2 90008 087.8415 146.6458 0009848 271.1453 227.1544 13.15255906000011
1 90009           19337.16666667  .00000520  00000-0  13893-2 0 00001
2 90009 087.8415 146.6458 0009855 271.1301 236.1696 13.15256013000010
1 90010           19337.16666667  .00000400  00000-0  10672-2 0 00002
2 90010 087.8415 146.6458 0009863 271.1266 245.1730 13.15256127000016
1 90011           19337.16666667  .00000247  00000-0  66048-3 0 00001
2 90011 087.8415 146.6458 0009870 271.1355 254.1640 13.15256264000016
1 90012           19337.16666667  .00000115  00000-0  30828-3 0 00003
2 90012 087.8415 146.6458 0009877 271.1552 263.1443 13.15256377000019
1 90013           19337.16666667  .00000000  00000-0  00000-0 0 00003
2 90013 087.8415 146.6459 0009882 271.1829 272.1165 13.15256468000016
1 90014           19337.16666667 -.00000088  00000-0 -23390-3 0 00002
2 90014 087.8415 146.6459 0009886 271.2151 281.0844 13.15256529000011
1 90015           19337.16666667 -.00000126  00000-0 -33696-3 0 00006
2 90015 087.8415 146.6459 0009888 271.2477 290.0517 13.15256543000018
1 90016           19337.16666667 -.00000159  00000-0 -42399-3 0 00003
2 90016 087.8414 146.6459 0009888 271.2778 299.0217 13.15256549000014
1 90017           19337.16666667 -.00000154  00000-0 -41067-3 0 00000
2 90017 087.8414 146.6459 0009888 271.3031 307.9964 13.15256521000016
1 90018           19337.16666667 -.00000117  00000-0 -31119-3 0 00007
2 90018 087.8414 146.6458 0009887 271.3233 316.9763 13.15256466000014
1 90019           19337.16666667 -.00000057  00000-0 -15128-3 0 00003
2 90019 087.8414 146.6458 0009887 271.3392 325.9604 13.15256397000018
1 90020           19337.16666667  .00000013  00000-0  35738-4 0 00005
2 90020 087.8414 146.6458 0009887 271.3532 334.9464 13.15256324000010
1 90021           19337.16666667  .00000080  00000-0  21348-3 0 00001
2 90021 087.8414 146.6458 0009887 271.3680 343.9317 13.15256262000013
1 90022           19337.16666667  .00000115  00000-0  30592-3 0 00002
2 90022 087.8414 146.6458 0009888 271.3860 352.9137 13.15256243000014
1 90023           19337.16666667  .00000139  00000-0  37064-3 0 00000
2 90023 087.8414 146.6458 0009888 271.4089 001.8908 13.15256238000019
1 90024           19337.16666667  .00000147  00000-0  39167-3 0 00006
2 90024 087.8414 146.6458 0009888 271.4370 010.8626 13.15256252000016
1 90025           19337.16666667  .00000102  00000-0  27283-3 0 00004
2 90025 087.8415 146.6458 0009887 271.4689 019.8307 13.15256325000016
1 90026           19337.16666667  .00000023  00000-0  61637-4 0 00009
2 90026 087.8415 146.6458 0009884 271.5017 028.7978 13.15256433000013
1 90027           19337.16666667 -.00000084  00000-0 -22496-3 0 00008
2 90027 087.8415 146.6458 0009880 271.5319 037.7675 13.15256566000016
1 90028           19337.16666667 -.00000210  00000-0 -56046-3 0 00008
2 90028 087.8415 146.6458 0009873 271.5557 046.7435 13.15256714000012
1 90029           19337.16666667 -.00000342  00000-0 -91260-3 0 00002
2 90029 087.8415 146.6458 0009866 271.5698 055.7293 13.15256864000019
1 90030           19337.16666667 -.00000467  00000-0 -12474-2 0 00001
2 90030 087.8415 146.6458 0009859 271.5721 064.7269 13.15257001000017
1 90031           19337.16666667 -.00000603  00000-0 -16111-2 0 00006
2 90031 087.8415 146.6458 0009851 271.5620 073.7368 13.15257139000010
1 90032           19337.16666667 -.00000698  00000-0 -18636-2 0 00005
2 90032 087.8415 146.6458 0009845 271.5413 082.7575 13.15257232000018
1 90033           19337.16666667 -.00000755  00000-0 -20167-2 0 00002
2 90033 087.8415 146.6459 0009839 271.5127 091.7861 13.15257281000017
1 90034           19337.16666667 -.00000768  00000-0 -20498-2 0 00004
2 90034 087.8415 146.6459 0009836 271.4800 100.8188 13.15257281000016
1 90035           19337.16666667 -.00000714  00000-0 -19054-2 0 00002
2 90035 087.8415 146.6459 0009834 271.4471 109.8517 13.15257215000011
1 90036           19337.16666667 -.00000639  00000-0 -17061-2 0 00005
2 90036 087.8414 146.6459 0009834 271.4173 118.8816 13.15257124000011
1 90037           19337.16666667 -.00000515  00000-0 -13751-2 0 00001
2 90037 087.8414 146.6459 0009834 271.3926 127.9064 13.15256986000018
1 90038           19337.16666667 -.00000350  00000-0 -93417-3 0 00007
2 90038 087.8414 146.6458 0009835 271.3736 136.9256 13.15256809000015
1 90039           19337.16666667 -.00000156  00000-0 -41764-3 0 00000
2 90039 087.8414 146.6458 0009836 271.3589 145.9404 13.15256609000016
